KINEIS-4A               
1 63303U 25056D   26086.40653617 -.00000350  00000+0 -47649-4 0  9990
2 63303  97.9809 212.4867 0002702 176.5520 183.5707 14.72349551 55097
